<?xml version="1.0"?>
<gpx version="1.1" creator="GDAL 3.6.3" xmlns:xsi="http://www.w3.org/2001/XMLSchema-instance" xmlns:ogr="http://osgeo.org/gdal" xmlns="http://www.topografix.com/GPX/1/1" xsi:schemaLocation="http://www.topografix.com/GPX/1/1 http://www.topografix.com/GPX/1/1/gpx.xsd">
<metadata><bounds minlat="44.568587411992098" minlon="9.113713441598550" maxlat="44.573651658794198" maxlon="9.123375517984140"/></metadata>                    
<trk>
  <name>Anello-Casareggio-Mulini-Tonno</name>
  <trkseg>
    <trkpt lat="44.569788921600498" lon="9.11612137319748">
        <ele>0.0</ele>
    </trkpt>
    <trkpt lat="44.5699220197369" lon="9.11612861604848">
        <ele>0.0</ele>
    </trkpt>
    <trkpt lat="44.570031467487702" lon="9.116131378245351">
        <ele>0.0</ele>
    </trkpt>
    <trkpt lat="44.570141923297598" lon="9.11613458791882">
        <ele>0.0</ele>
    </trkpt>
    <trkpt lat="44.571421919463297" lon="9.11507865005861">
        <ele>0.0</ele>
    </trkpt>
    <trkpt lat="44.571952461373002" lon="9.114264482876511">
        <ele>0.0</ele>
    </trkpt>
    <trkpt lat="44.572412162183902" lon="9.11371344159855">
        <ele>0.0</ele>
    </trkpt>
    <trkpt lat="44.572306505325798" lon="9.115276005702169">
        <ele>0.0</ele>
    </trkpt>
    <trkpt lat="44.572000756544398" lon="9.1168022286263">
        <ele>0.0</ele>
    </trkpt>
    <trkpt lat="44.572735566502303" lon="9.11761743347682">
        <ele>0.0</ele>
    </trkpt>
    <trkpt lat="44.572768494350797" lon="9.117710253149131">
        <ele>0.0</ele>
    </trkpt>
    <trkpt lat="44.572953307401001" lon="9.11789525433008">
        <ele>0.0</ele>
    </trkpt>
    <trkpt lat="44.573037311484597" lon="9.118045901055121">
        <ele>0.0</ele>
    </trkpt>
    <trkpt lat="44.573042635018503" lon="9.11804926420881">
        <ele>0.0</ele>
    </trkpt>
    <trkpt lat="44.573144870320498" lon="9.11822981035237">
        <ele>0.0</ele>
    </trkpt>
    <trkpt lat="44.573106574871503" lon="9.11848915757653">
        <ele>0.0</ele>
    </trkpt>
    <trkpt lat="44.573295357942101" lon="9.11874710454423">
        <ele>0.0</ele>
    </trkpt>
    <trkpt lat="44.573353425249003" lon="9.118914144667549">
        <ele>0.0</ele>
    </trkpt>
    <trkpt lat="44.573472261686199" lon="9.119158492412961">
        <ele>0.0</ele>
    </trkpt>
    <trkpt lat="44.573622124736502" lon="9.119203826934079">
        <ele>0.0</ele>
    </trkpt>
    <trkpt lat="44.573624743379902" lon="9.11920924493705">
        <ele>0.0</ele>
    </trkpt>
    <trkpt lat="44.573651658794198" lon="9.1193452746475">
        <ele>0.0</ele>
    </trkpt>
    <trkpt lat="44.573567356642002" lon="9.119500370732959">
        <ele>0.0</ele>
    </trkpt>
    <trkpt lat="44.573357992056302" lon="9.119530297152521">
        <ele>0.0</ele>
    </trkpt>
    <trkpt lat="44.573201173453903" lon="9.11964678525564">
        <ele>0.0</ele>
    </trkpt>
    <trkpt lat="44.573028791692998" lon="9.11976590115632">
        <ele>0.0</ele>
    </trkpt>
    <trkpt lat="44.572889127067697" lon="9.119782637306329">
        <ele>0.0</ele>
    </trkpt>
    <trkpt lat="44.572802744950202" lon="9.11982952459916">
        <ele>0.0</ele>
    </trkpt>
    <trkpt lat="44.572664235492503" lon="9.11979269384905">
        <ele>0.0</ele>
    </trkpt>
    <trkpt lat="44.572568865852098" lon="9.119822704594339">
        <ele>0.0</ele>
    </trkpt>
    <trkpt lat="44.572410127883799" lon="9.119669434440389">
        <ele>0.0</ele>
    </trkpt>
    <trkpt lat="44.5720675688261" lon="9.11960227344337">
        <ele>0.0</ele>
    </trkpt>
    <trkpt lat="44.571999743560603" lon="9.11959363324171">
        <ele>0.0</ele>
    </trkpt>
    <trkpt lat="44.571895926618197" lon="9.11958334239204">
        <ele>0.0</ele>
    </trkpt>
    <trkpt lat="44.571694068636802" lon="9.11947610772385">
        <ele>0.0</ele>
    </trkpt>
    <trkpt lat="44.571471600298402" lon="9.11941229362569">
        <ele>0.0</ele>
    </trkpt>
    <trkpt lat="44.571361941282198" lon="9.11947046488096">
        <ele>0.0</ele>
    </trkpt>
    <trkpt lat="44.571137191734799" lon="9.11941276659365">
        <ele>0.0</ele>
    </trkpt>
    <trkpt lat="44.5710115513521" lon="9.1195133795431">
        <ele>0.0</ele>
    </trkpt>
    <trkpt lat="44.570913482570298" lon="9.11972837659151">
        <ele>0.0</ele>
    </trkpt>
    <trkpt lat="44.570803776620203" lon="9.119833799096201">
        <ele>0.0</ele>
    </trkpt>
    <trkpt lat="44.570798446395102" lon="9.119833699028121">
        <ele>0.0</ele>
    </trkpt>
    <trkpt lat="44.570567953099101" lon="9.11986558419243">
        <ele>0.0</ele>
    </trkpt>
    <trkpt lat="44.570416881429999" lon="9.11998258144596">
        <ele>0.0</ele>
    </trkpt>
    <trkpt lat="44.570292519564198" lon="9.12009496675276">
        <ele>0.0</ele>
    </trkpt>
    <trkpt lat="44.570221776984297" lon="9.12022674445662">
        <ele>0.0</ele>
    </trkpt>
    <trkpt lat="44.5700839495019" lon="9.12027603865551">
        <ele>0.0</ele>
    </trkpt>
    <trkpt lat="44.570171388819098" lon="9.120347574014319">
        <ele>0.0</ele>
    </trkpt>
    <trkpt lat="44.570274353315597" lon="9.120353654481351">
        <ele>0.0</ele>
    </trkpt>
    <trkpt lat="44.5704290751329" lon="9.120502056199831">
        <ele>0.0</ele>
    </trkpt>
    <trkpt lat="44.5704637463352" lon="9.12058405190669">
        <ele>0.0</ele>
    </trkpt>
    <trkpt lat="44.570414550542999" lon="9.120660118233969">
        <ele>0.0</ele>
    </trkpt>
    <trkpt lat="44.570408142529203" lon="9.120660198366631">
        <ele>0.0</ele>
    </trkpt>
    <trkpt lat="44.570331685207798" lon="9.12070352805711">
        <ele>0.0</ele>
    </trkpt>
    <trkpt lat="44.570154588868597" lon="9.120852980121731">
        <ele>0.0</ele>
    </trkpt>
    <trkpt lat="44.570046150751999" lon="9.12086016707646">
        <ele>0.0</ele>
    </trkpt>
    <trkpt lat="44.5697929231277" lon="9.120958416517761">
        <ele>0.0</ele>
    </trkpt>
    <trkpt lat="44.569869288611102" lon="9.120997313618121">
        <ele>0.0</ele>
    </trkpt>
    <trkpt lat="44.569909947213901" lon="9.120994490070411">
        <ele>0.0</ele>
    </trkpt>
    <trkpt lat="44.570173711470503" lon="9.121050112644321">
        <ele>0.0</ele>
    </trkpt>
    <trkpt lat="44.570158881427403" lon="9.12108230176225">
        <ele>0.0</ele>
    </trkpt>
    <trkpt lat="44.570104848125901" lon="9.12114110472297">
        <ele>0.0</ele>
    </trkpt>
    <trkpt lat="44.570091258394001" lon="9.12123956703002">
        <ele>0.0</ele>
    </trkpt>
    <trkpt lat="44.570077139204102" lon="9.121294996314459">
        <ele>0.0</ele>
    </trkpt>
    <trkpt lat="44.569938386704301" lon="9.121272749348989">
        <ele>0.0</ele>
    </trkpt>
    <trkpt lat="44.569680335925703" lon="9.121358253140651">
        <ele>0.0</ele>
    </trkpt>
    <trkpt lat="44.569626610480803" lon="9.121239832310851">
        <ele>0.0</ele>
    </trkpt>
    <trkpt lat="44.569518832234202" lon="9.12112970026371">
        <ele>0.0</ele>
    </trkpt>
    <trkpt lat="44.569368081385903" lon="9.12107844215887">
        <ele>0.0</ele>
    </trkpt>
    <trkpt lat="44.569317134005097" lon="9.121001724120349">
        <ele>0.0</ele>
    </trkpt>
    <trkpt lat="44.569168217724297" lon="9.12070727008439">
        <ele>0.0</ele>
    </trkpt>
    <trkpt lat="44.569043202926501" lon="9.12070148396003">
        <ele>0.0</ele>
    </trkpt>
    <trkpt lat="44.569091721464403" lon="9.120787577485119">
        <ele>0.0</ele>
    </trkpt>
    <trkpt lat="44.569089040109503" lon="9.12087682873441">
        <ele>0.0</ele>
    </trkpt>
    <trkpt lat="44.569039699172002" lon="9.12104211002165">
        <ele>0.0</ele>
    </trkpt>
    <trkpt lat="44.569028535317102" lon="9.12112382564818">
        <ele>0.0</ele>
    </trkpt>
    <trkpt lat="44.568941959341899" lon="9.12121512808417">
        <ele>0.0</ele>
    </trkpt>
    <trkpt lat="44.568917084890998" lon="9.12125881092417">
        <ele>0.0</ele>
    </trkpt>
    <trkpt lat="44.568918366130802" lon="9.1213297247497">
        <ele>0.0</ele>
    </trkpt>
    <trkpt lat="44.568928855577198" lon="9.12136561200745">
        <ele>0.0</ele>
    </trkpt>
    <trkpt lat="44.568934364000398" lon="9.121401699505601">
        <ele>0.0</ele>
    </trkpt>
    <trkpt lat="44.568974847546798" lon="9.12144897613455">
        <ele>0.0</ele>
    </trkpt>
    <trkpt lat="44.5690129726731" lon="9.121477696030411">
        <ele>0.0</ele>
    </trkpt>
    <trkpt lat="44.569068397186101" lon="9.121620984889651">
        <ele>0.0</ele>
    </trkpt>
    <trkpt lat="44.569154434488503" lon="9.121739881193751">
        <ele>0.0</ele>
    </trkpt>
    <trkpt lat="44.569176304949202" lon="9.121798222362131">
        <ele>0.0</ele>
    </trkpt>
    <trkpt lat="44.569177031977297" lon="9.12183124350075">
        <ele>0.0</ele>
    </trkpt>
    <trkpt lat="44.569157745584398" lon="9.12188756554322">
        <ele>0.0</ele>
    </trkpt>
    <trkpt lat="44.569120356851499" lon="9.122031741720001">
        <ele>0.0</ele>
    </trkpt>
    <trkpt lat="44.5689857490542" lon="9.122153749452339">
        <ele>0.0</ele>
    </trkpt>
    <trkpt lat="44.568826430818703" lon="9.122202202358659">
        <ele>0.0</ele>
    </trkpt>
    <trkpt lat="44.568814211821802" lon="9.122531377751271">
        <ele>0.0</ele>
    </trkpt>
    <trkpt lat="44.568704532135001" lon="9.122732355644519">
        <ele>0.0</ele>
    </trkpt>
    <trkpt lat="44.5687171339396" lon="9.122806278802109">
        <ele>0.0</ele>
    </trkpt>
    <trkpt lat="44.5686590548898" lon="9.123037350003861">
        <ele>0.0</ele>
    </trkpt>
    <trkpt lat="44.568587411992098" lon="9.123157926572929">
        <ele>0.0</ele>
    </trkpt>
    <trkpt lat="44.568604927448398" lon="9.12337551798414">
        <ele>0.0</ele>
    </trkpt>
    <trkpt lat="44.5686222484889" lon="9.123176261093869">
        <ele>0.0</ele>
    </trkpt>
    <trkpt lat="44.568683004197098" lon="9.1230563106982">
        <ele>0.0</ele>
    </trkpt>
    <trkpt lat="44.568739147468499" lon="9.12280569334143">
        <ele>0.0</ele>
    </trkpt>
    <trkpt lat="44.568737961037499" lon="9.12280037191112">
        <ele>0.0</ele>
    </trkpt>
    <trkpt lat="44.568733219531602" lon="9.122700785552819">
        <ele>0.0</ele>
    </trkpt>
    <trkpt lat="44.568864563102203" lon="9.122551033009771">
        <ele>0.0</ele>
    </trkpt>
    <trkpt lat="44.568839510899501" lon="9.122211194654991">
        <ele>0.0</ele>
    </trkpt>
    <trkpt lat="44.5689820182861" lon="9.12214748911183">
        <ele>0.0</ele>
    </trkpt>
    <trkpt lat="44.5691127938709" lon="9.12202338238769">
        <ele>0.0</ele>
    </trkpt>
    <trkpt lat="44.569169342141002" lon="9.12179615287549">
        <ele>0.0</ele>
    </trkpt>
    <trkpt lat="44.5690646184512" lon="9.121629979790461">
        <ele>0.0</ele>
    </trkpt>
    <trkpt lat="44.569008131851199" lon="9.12149198516331">
        <ele>0.0</ele>
    </trkpt>
    <trkpt lat="44.568924679645697" lon="9.121399745142091">
        <ele>0.0</ele>
    </trkpt>
    <trkpt lat="44.5689113218043" lon="9.121302275277349">
        <ele>0.0</ele>
    </trkpt>
    <trkpt lat="44.568916586500997" lon="9.12123814714373">
        <ele>0.0</ele>
    </trkpt>
    <trkpt lat="44.569024590479899" lon="9.121121174647881">
        <ele>0.0</ele>
    </trkpt>
    <trkpt lat="44.569024528801201" lon="9.12106560284478">
        <ele>0.0</ele>
    </trkpt>
    <trkpt lat="44.569078830146601" lon="9.12086616540096">
        <ele>0.0</ele>
    </trkpt>
    <trkpt lat="44.569077729429203" lon="9.120802720467889">
        <ele>0.0</ele>
    </trkpt>
    <trkpt lat="44.569033939188799" lon="9.12071546112468">
        <ele>0.0</ele>
    </trkpt>
    <trkpt lat="44.568996626295302" lon="9.120698737100049">
        <ele>0.0</ele>
    </trkpt>
    <trkpt lat="44.568987183540102" lon="9.120612117605001">
        <ele>0.0</ele>
    </trkpt>
    <trkpt lat="44.569081043606801" lon="9.120459320673509">
        <ele>0.0</ele>
    </trkpt>
    <trkpt lat="44.569106714637897" lon="9.120338244502779">
        <ele>0.0</ele>
    </trkpt>
    <trkpt lat="44.569196462048097" lon="9.12023696423039">
        <ele>0.0</ele>
    </trkpt>
    <trkpt lat="44.569220242409997" lon="9.120096206424719">
        <ele>0.0</ele>
    </trkpt>
    <trkpt lat="44.569248196476103" lon="9.11995000442683">
        <ele>0.0</ele>
    </trkpt>
    <trkpt lat="44.569230621344197" lon="9.1198634910591">
        <ele>0.0</ele>
    </trkpt>
    <trkpt lat="44.569245229588397" lon="9.11971434369053">
        <ele>0.0</ele>
    </trkpt>
    <trkpt lat="44.569313508584997" lon="9.11966436514437">
        <ele>0.0</ele>
    </trkpt>
    <trkpt lat="44.569397229270102" lon="9.11962173534643">
        <ele>0.0</ele>
    </trkpt>
    <trkpt lat="44.569470580593901" lon="9.119437983418401">
        <ele>0.0</ele>
    </trkpt>
    <trkpt lat="44.569585533230999" lon="9.119298220291769">
        <ele>0.0</ele>
    </trkpt>
    <trkpt lat="44.569697837598099" lon="9.11921778628853">
        <ele>0.0</ele>
    </trkpt>
    <trkpt lat="44.570061677810699" lon="9.119017498760609">
        <ele>0.0</ele>
    </trkpt>
    <trkpt lat="44.570301167314398" lon="9.118992737924771">
        <ele>0.0</ele>
    </trkpt>
    <trkpt lat="44.570434391850497" lon="9.118970305431059">
        <ele>0.0</ele>
    </trkpt>
    <trkpt lat="44.570530671493501" lon="9.11892748068084">
        <ele>0.0</ele>
    </trkpt>
    <trkpt lat="44.570594303824201" lon="9.11883561710064">
        <ele>0.0</ele>
    </trkpt>
    <trkpt lat="44.5706614497484" lon="9.118659970245609">
        <ele>0.0</ele>
    </trkpt>
    <trkpt lat="44.570683335520101" lon="9.11853553445297">
        <ele>0.0</ele>
    </trkpt>
    <trkpt lat="44.570747142740103" lon="9.11842451917841">
        <ele>0.0</ele>
    </trkpt>
    <trkpt lat="44.570813785461603" lon="9.11825273306286">
        <ele>0.0</ele>
    </trkpt>
    <trkpt lat="44.5708556603823" lon="9.118208804659121">
        <ele>0.0</ele>
    </trkpt>
    <trkpt lat="44.570906917712101" lon="9.118204055496779">
        <ele>0.0</ele>
    </trkpt>
    <trkpt lat="44.570954364398503" lon="9.118203565445439">
        <ele>0.0</ele>
    </trkpt>
    <trkpt lat="44.571056734543802" lon="9.11824046392451">
        <ele>0.0</ele>
    </trkpt>
    <trkpt lat="44.571338388323703" lon="9.11832934623652">
        <ele>0.0</ele>
    </trkpt>
    <trkpt lat="44.571331093111297" lon="9.118384497401999">
        <ele>0.0</ele>
    </trkpt>
    <trkpt lat="44.571356326504201" lon="9.11842515933934">
        <ele>0.0</ele>
    </trkpt>
    <trkpt lat="44.571454592069998" lon="9.11840779519547">
        <ele>0.0</ele>
    </trkpt>
    <trkpt lat="44.571481245743499" lon="9.11824381910645">
        <ele>0.0</ele>
    </trkpt>
    <trkpt lat="44.571433913311502" lon="9.11823830061117">
        <ele>0.0</ele>
    </trkpt>
    <trkpt lat="44.5714096401652" lon="9.11811424584201">
        <ele>0.0</ele>
    </trkpt>
    <trkpt lat="44.571357675862998" lon="9.118062439014439">
        <ele>0.0</ele>
    </trkpt>
    <trkpt lat="44.571346010282902" lon="9.117974140579379">
        <ele>0.0</ele>
    </trkpt>
    <trkpt lat="44.571373283428301" lon="9.117833516109229">
        <ele>0.0</ele>
    </trkpt>
    <trkpt lat="44.571336902487197" lon="9.117553951808819">
        <ele>0.0</ele>
    </trkpt>
    <trkpt lat="44.571287617126501" lon="9.1175013472442">
        <ele>0.0</ele>
    </trkpt>
    <trkpt lat="44.571286897359002" lon="9.117433472016881">
        <ele>0.0</ele>
    </trkpt>
    <trkpt lat="44.571207417225203" lon="9.117363700193319">
        <ele>0.0</ele>
    </trkpt>
    <trkpt lat="44.5711494610429" lon="9.117229963425279">
        <ele>0.0</ele>
    </trkpt>
    <trkpt lat="44.571060734834198" lon="9.11718608166473">
        <ele>0.0</ele>
    </trkpt>
    <trkpt lat="44.570977507206301" lon="9.117108789791409">
        <ele>0.0</ele>
    </trkpt>
    <trkpt lat="44.570960119629497" lon="9.117012446245729">
        <ele>0.0</ele>
    </trkpt>
    <trkpt lat="44.571017489394698" lon="9.11682792396218">
        <ele>0.0</ele>
    </trkpt>
    <trkpt lat="44.570992370461099" lon="9.11671445595602">
        <ele>0.0</ele>
    </trkpt>
    <trkpt lat="44.571040107482702" lon="9.11650347260092">
        <ele>0.0</ele>
    </trkpt>
    <trkpt lat="44.5710993383831" lon="9.11647301024302">
        <ele>0.0</ele>
    </trkpt>
    <trkpt lat="44.571211814627901" lon="9.116328903366449">
        <ele>0.0</ele>
    </trkpt>
    <trkpt lat="44.5712753812345" lon="9.11629958599034">
        <ele>0.0</ele>
    </trkpt>
    <trkpt lat="44.571398023467097" lon="9.116124874907021">
        <ele>0.0</ele>
    </trkpt>
    <trkpt lat="44.571387687365402" lon="9.11606195115607">
        <ele>0.0</ele>
    </trkpt>
    <trkpt lat="44.571471982085399" lon="9.1158360791218">
        <ele>0.0</ele>
    </trkpt>
    <trkpt lat="44.571450651345401" lon="9.115642977841491">
        <ele>0.0</ele>
    </trkpt>
    <trkpt lat="44.571479357750299" lon="9.115546040419639">
        <ele>0.0</ele>
    </trkpt>
    <trkpt lat="44.571349329699402" lon="9.115532607683001">
        <ele>0.0</ele>
    </trkpt>
    <trkpt lat="44.5712978034027" lon="9.11549834956184">
        <ele>0.0</ele>
    </trkpt>
    <trkpt lat="44.571226442933899" lon="9.115493615794801">
        <ele>0.0</ele>
    </trkpt>
    <trkpt lat="44.571173288763099" lon="9.115562002303079">
        <ele>0.0</ele>
    </trkpt>
    <trkpt lat="44.571059152723599" lon="9.115601594341101">
        <ele>0.0</ele>
    </trkpt>
    <trkpt lat="44.570981110222299" lon="9.115649207397061">
        <ele>0.0</ele>
    </trkpt>
    <trkpt lat="44.570955856810997" lon="9.1157201214733">
        <ele>0.0</ele>
    </trkpt>
    <trkpt lat="44.5709036064138" lon="9.11575485165462">
        <ele>0.0</ele>
    </trkpt>
    <trkpt lat="44.570803918915303" lon="9.115788649178601">
        <ele>0.0</ele>
    </trkpt>
    <trkpt lat="44.570510801921898" lon="9.11592749713186">
        <ele>0.0</ele>
    </trkpt>
    <trkpt lat="44.570152524933199" lon="9.11617339434425">
        <ele>0.0</ele>
    </trkpt>
    <trkpt lat="44.569818609455197" lon="9.116143374438749">
        <ele>0.0</ele>
    </trkpt>
  </trkseg>
</trk>
</gpx>
