<?xml version="1.0"?>
<gpx version="1.1" creator="GDAL 3.6.3" xmlns:xsi="http://www.w3.org/2001/XMLSchema-instance" xmlns:ogr="http://osgeo.org/gdal" xmlns="http://www.topografix.com/GPX/1/1" xsi:schemaLocation="http://www.topografix.com/GPX/1/1 http://www.topografix.com/GPX/1/1/gpx.xsd">
<metadata><bounds minlat="44.559073119452002" minlon="9.092551930691201" maxlat="44.572135663761600" maxlon="9.115564197583931"/></metadata>                    
<trk>
  <name>Casareggio - Pareto - Tessaie</name>
  <trkseg>
    <trkpt lat="44.569410975949097" lon="9.115564197583931">
        <ele>0.0</ele>
    </trkpt>
    <trkpt lat="44.569582801410299" lon="9.115455185154371">
        <ele>0.0</ele>
    </trkpt>
    <trkpt lat="44.569658457732203" lon="9.11526744676879">
        <ele>0.0</ele>
    </trkpt>
    <trkpt lat="44.569647562242302" lon="9.115138625070021">
        <ele>0.0</ele>
    </trkpt>
    <trkpt lat="44.569656207173097" lon="9.114971840778789">
        <ele>0.0</ele>
    </trkpt>
    <trkpt lat="44.569540330546999" lon="9.114558980549401">
        <ele>0.0</ele>
    </trkpt>
    <trkpt lat="44.569363221986301" lon="9.114134495665679">
        <ele>0.0</ele>
    </trkpt>
    <trkpt lat="44.569356360974602" lon="9.114037303538231">
        <ele>0.0</ele>
    </trkpt>
    <trkpt lat="44.569274262680601" lon="9.1136801384619">
        <ele>0.0</ele>
    </trkpt>
    <trkpt lat="44.569265977599699" lon="9.11360744395706">
        <ele>0.0</ele>
    </trkpt>
    <trkpt lat="44.569275256777303" lon="9.113485669137241">
        <ele>0.0</ele>
    </trkpt>
    <trkpt lat="44.569156319643902" lon="9.11287826795151">
        <ele>0.0</ele>
    </trkpt>
    <trkpt lat="44.569146054263598" lon="9.112643136970281">
        <ele>0.0</ele>
    </trkpt>
    <trkpt lat="44.569190296459098" lon="9.112514467863351">
        <ele>0.0</ele>
    </trkpt>
    <trkpt lat="44.5693143775853" lon="9.11225933839486">
        <ele>0.0</ele>
    </trkpt>
    <trkpt lat="44.569308043184897" lon="9.11204807672237">
        <ele>0.0</ele>
    </trkpt>
    <trkpt lat="44.569208414906797" lon="9.11191839479771">
        <ele>0.0</ele>
    </trkpt>
    <trkpt lat="44.568940501457298" lon="9.111536247639471">
        <ele>0.0</ele>
    </trkpt>
    <trkpt lat="44.568825314872797" lon="9.111354134081539">
        <ele>0.0</ele>
    </trkpt>
    <trkpt lat="44.568862380041402" lon="9.11108923941857">
        <ele>0.0</ele>
    </trkpt>
    <trkpt lat="44.569269590946398" lon="9.110938688511091">
        <ele>0.0</ele>
    </trkpt>
    <trkpt lat="44.569489586607503" lon="9.11078916247426">
        <ele>0.0</ele>
    </trkpt>
    <trkpt lat="44.569786782119799" lon="9.110601617810479">
        <ele>0.0</ele>
    </trkpt>
    <trkpt lat="44.569883085029701" lon="9.11054156223271">
        <ele>0.0</ele>
    </trkpt>
    <trkpt lat="44.570252604625701" lon="9.11003971375046">
        <ele>0.0</ele>
    </trkpt>
    <trkpt lat="44.570225028225501" lon="9.109653425441699">
        <ele>0.0</ele>
    </trkpt>
    <trkpt lat="44.570477807209201" lon="9.10924438720318">
        <ele>0.0</ele>
    </trkpt>
    <trkpt lat="44.570513493562899" lon="9.10901293346264">
        <ele>0.0</ele>
    </trkpt>
    <trkpt lat="44.570610303271401" lon="9.10892730826831">
        <ele>0.0</ele>
    </trkpt>
    <trkpt lat="44.570743783704302" lon="9.10883601165362">
        <ele>0.0</ele>
    </trkpt>
    <trkpt lat="44.571109626756801" lon="9.108742746961109">
        <ele>0.0</ele>
    </trkpt>
    <trkpt lat="44.571353656469697" lon="9.108537603556631">
        <ele>0.0</ele>
    </trkpt>
    <trkpt lat="44.571437859826503" lon="9.108142322227041">
        <ele>0.0</ele>
    </trkpt>
    <trkpt lat="44.571557346880397" lon="9.107993764823741">
        <ele>0.0</ele>
    </trkpt>
    <trkpt lat="44.571683284085999" lon="9.107967341783199">
        <ele>0.0</ele>
    </trkpt>
    <trkpt lat="44.571812066170203" lon="9.10794156126013">
        <ele>0.0</ele>
    </trkpt>
    <trkpt lat="44.571896955717698" lon="9.107860732224401">
        <ele>0.0</ele>
    </trkpt>
    <trkpt lat="44.571979030433297" lon="9.107675444779399">
        <ele>0.0</ele>
    </trkpt>
    <trkpt lat="44.571916570429998" lon="9.107511049085179">
        <ele>0.0</ele>
    </trkpt>
    <trkpt lat="44.5718249044345" lon="9.10720171545155">
        <ele>0.0</ele>
    </trkpt>
    <trkpt lat="44.571798084231602" lon="9.107002917164881">
        <ele>0.0</ele>
    </trkpt>
    <trkpt lat="44.571815374190102" lon="9.106867445887101">
        <ele>0.0</ele>
    </trkpt>
    <trkpt lat="44.571962546199799" lon="9.106558201780899">
        <ele>0.0</ele>
    </trkpt>
    <trkpt lat="44.571986981402802" lon="9.106393220116811">
        <ele>0.0</ele>
    </trkpt>
    <trkpt lat="44.5721356637616" lon="9.106195627567709">
        <ele>0.0</ele>
    </trkpt>
    <trkpt lat="44.572055180640199" lon="9.106047812316129">
        <ele>0.0</ele>
    </trkpt>
    <trkpt lat="44.571946852576801" lon="9.106137927459921">
        <ele>0.0</ele>
    </trkpt>
    <trkpt lat="44.571759571788" lon="9.10620322098988">
        <ele>0.0</ele>
    </trkpt>
    <trkpt lat="44.571756449693297" lon="9.1062018563973">
        <ele>0.0</ele>
    </trkpt>
    <trkpt lat="44.571570454810399" lon="9.106075956856831">
        <ele>0.0</ele>
    </trkpt>
    <trkpt lat="44.571232205775402" lon="9.105610126552239">
        <ele>0.0</ele>
    </trkpt>
    <trkpt lat="44.570667511132797" lon="9.10518706948036">
        <ele>0.0</ele>
    </trkpt>
    <trkpt lat="44.570579017940197" lon="9.10494945140962">
        <ele>0.0</ele>
    </trkpt>
    <trkpt lat="44.570548353527997" lon="9.104826526425249">
        <ele>0.0</ele>
    </trkpt>
    <trkpt lat="44.570495675765997" lon="9.104535419157219">
        <ele>0.0</ele>
    </trkpt>
    <trkpt lat="44.5699321675758" lon="9.104577917178039">
        <ele>0.0</ele>
    </trkpt>
    <trkpt lat="44.569622555507998" lon="9.1044545978886">
        <ele>0.0</ele>
    </trkpt>
    <trkpt lat="44.569618870118802" lon="9.1044508009034">
        <ele>0.0</ele>
    </trkpt>
    <trkpt lat="44.569538975121503" lon="9.104385176188471">
        <ele>0.0</ele>
    </trkpt>
    <trkpt lat="44.569535598473401" lon="9.10438374310001">
        <ele>0.0</ele>
    </trkpt>
    <trkpt lat="44.569308173846998" lon="9.10415265906936">
        <ele>0.0</ele>
    </trkpt>
    <trkpt lat="44.569118685695202" lon="9.10409298697147">
        <ele>0.0</ele>
    </trkpt>
    <trkpt lat="44.569003223640898" lon="9.103953770308809">
        <ele>0.0</ele>
    </trkpt>
    <trkpt lat="44.568917786278398" lon="9.10381753273661">
        <ele>0.0</ele>
    </trkpt>
    <trkpt lat="44.568781448974299" lon="9.10377731619587">
        <ele>0.0</ele>
    </trkpt>
    <trkpt lat="44.568575545640599" lon="9.103621765443689">
        <ele>0.0</ele>
    </trkpt>
    <trkpt lat="44.568490575389603" lon="9.10359467426529">
        <ele>0.0</ele>
    </trkpt>
    <trkpt lat="44.568408796522199" lon="9.103615704340781">
        <ele>0.0</ele>
    </trkpt>
    <trkpt lat="44.568339370011799" lon="9.10359713926132">
        <ele>0.0</ele>
    </trkpt>
    <trkpt lat="44.568297685299797" lon="9.103632531082191">
        <ele>0.0</ele>
    </trkpt>
    <trkpt lat="44.568295927552597" lon="9.103632794645611">
        <ele>0.0</ele>
    </trkpt>
    <trkpt lat="44.568176864799597" lon="9.10362135660051">
        <ele>0.0</ele>
    </trkpt>
    <trkpt lat="44.568117395200197" lon="9.10365969017627">
        <ele>0.0</ele>
    </trkpt>
    <trkpt lat="44.568043476772701" lon="9.103600951557359">
        <ele>0.0</ele>
    </trkpt>
    <trkpt lat="44.5675640530919" lon="9.103799435374279">
        <ele>0.0</ele>
    </trkpt>
    <trkpt lat="44.567407079857603" lon="9.10375692554706">
        <ele>0.0</ele>
    </trkpt>
    <trkpt lat="44.567180471708802" lon="9.103763637432071">
        <ele>0.0</ele>
    </trkpt>
    <trkpt lat="44.567050800617501" lon="9.10366017786354">
        <ele>0.0</ele>
    </trkpt>
    <trkpt lat="44.567027771325201" lon="9.103570585082331">
        <ele>0.0</ele>
    </trkpt>
    <trkpt lat="44.566949866747997" lon="9.103012451341639">
        <ele>0.0</ele>
    </trkpt>
    <trkpt lat="44.5669300385509" lon="9.102790016741">
        <ele>0.0</ele>
    </trkpt>
    <trkpt lat="44.566843906876301" lon="9.10243746634788">
        <ele>0.0</ele>
    </trkpt>
    <trkpt lat="44.566837547289197" lon="9.10231209317536">
        <ele>0.0</ele>
    </trkpt>
    <trkpt lat="44.566838088676299" lon="9.10213082263035">
        <ele>0.0</ele>
    </trkpt>
    <trkpt lat="44.566780732402499" lon="9.101992964774411">
        <ele>0.0</ele>
    </trkpt>
    <trkpt lat="44.566576242745697" lon="9.101803306398031">
        <ele>0.0</ele>
    </trkpt>
    <trkpt lat="44.566482420029097" lon="9.101822534957259">
        <ele>0.0</ele>
    </trkpt>
    <trkpt lat="44.566187986048398" lon="9.101734991113741">
        <ele>0.0</ele>
    </trkpt>
    <trkpt lat="44.566122697815601" lon="9.101639261788019">
        <ele>0.0</ele>
    </trkpt>
    <trkpt lat="44.566125572695803" lon="9.101348653364431">
        <ele>0.0</ele>
    </trkpt>
    <trkpt lat="44.566148576583203" lon="9.10117852062695">
        <ele>0.0</ele>
    </trkpt>
    <trkpt lat="44.566225061652602" lon="9.10103976395526">
        <ele>0.0</ele>
    </trkpt>
    <trkpt lat="44.566213805472998" lon="9.1008925802211">
        <ele>0.0</ele>
    </trkpt>
    <trkpt lat="44.566245312152802" lon="9.10077530834587">
        <ele>0.0</ele>
    </trkpt>
    <trkpt lat="44.566201770397797" lon="9.10060383752778">
        <ele>0.0</ele>
    </trkpt>
    <trkpt lat="44.566201600096697" lon="9.10060050921857">
        <ele>0.0</ele>
    </trkpt>
    <trkpt lat="44.566145037267297" lon="9.100341813049731">
        <ele>0.0</ele>
    </trkpt>
    <trkpt lat="44.566059224798899" lon="9.10013613670583">
        <ele>0.0</ele>
    </trkpt>
    <trkpt lat="44.565748455115298" lon="9.09974366548817">
        <ele>0.0</ele>
    </trkpt>
    <trkpt lat="44.565597796882102" lon="9.09964645642966">
        <ele>0.0</ele>
    </trkpt>
    <trkpt lat="44.565432251980098" lon="9.09950606257155">
        <ele>0.0</ele>
    </trkpt>
    <trkpt lat="44.565244926313802" lon="9.099287399773401">
        <ele>0.0</ele>
    </trkpt>
    <trkpt lat="44.565072839783802" lon="9.09905225712397">
        <ele>0.0</ele>
    </trkpt>
    <trkpt lat="44.564982998537097" lon="9.09888839843107">
        <ele>0.0</ele>
    </trkpt>
    <trkpt lat="44.5649538297601" lon="9.09870015209251">
        <ele>0.0</ele>
    </trkpt>
    <trkpt lat="44.564845739455201" lon="9.09856861677426">
        <ele>0.0</ele>
    </trkpt>
    <trkpt lat="44.564738485617902" lon="9.0984597370231">
        <ele>0.0</ele>
    </trkpt>
    <trkpt lat="44.5647035481012" lon="9.098347639968839">
        <ele>0.0</ele>
    </trkpt>
    <trkpt lat="44.564591896050402" lon="9.09819000780546">
        <ele>0.0</ele>
    </trkpt>
    <trkpt lat="44.564511114632303" lon="9.097787254172561">
        <ele>0.0</ele>
    </trkpt>
    <trkpt lat="44.564538278634302" lon="9.097756703784439">
        <ele>0.0</ele>
    </trkpt>
    <trkpt lat="44.564538909084" lon="9.09769030702447">
        <ele>0.0</ele>
    </trkpt>
    <trkpt lat="44.564511268815998" lon="9.097605961961669">
        <ele>0.0</ele>
    </trkpt>
    <trkpt lat="44.564534720947698" lon="9.097243576458551">
        <ele>0.0</ele>
    </trkpt>
    <trkpt lat="44.564603608125203" lon="9.09717236083733">
        <ele>0.0</ele>
    </trkpt>
    <trkpt lat="44.564656133583703" lon="9.09702901588002">
        <ele>0.0</ele>
    </trkpt>
    <trkpt lat="44.565075098447501" lon="9.096622534648111">
        <ele>0.0</ele>
    </trkpt>
    <trkpt lat="44.565225782635402" lon="9.0964832848467">
        <ele>0.0</ele>
    </trkpt>
    <trkpt lat="44.565555249154102" lon="9.096269835492031">
        <ele>0.0</ele>
    </trkpt>
    <trkpt lat="44.565747152218201" lon="9.096183244204211">
        <ele>0.0</ele>
    </trkpt>
    <trkpt lat="44.565850560043202" lon="9.096307629668759">
        <ele>0.0</ele>
    </trkpt>
    <trkpt lat="44.565979863005602" lon="9.09634966322737">
        <ele>0.0</ele>
    </trkpt>
    <trkpt lat="44.5661450582163" lon="9.096378398865379">
        <ele>0.0</ele>
    </trkpt>
    <trkpt lat="44.5661565102126" lon="9.09637738396739">
        <ele>0.0</ele>
    </trkpt>
    <trkpt lat="44.566236114823901" lon="9.096306005381271">
        <ele>0.0</ele>
    </trkpt>
    <trkpt lat="44.5662282901962" lon="9.095991785116579">
        <ele>0.0</ele>
    </trkpt>
    <trkpt lat="44.566033444306299" lon="9.095647901676619">
        <ele>0.0</ele>
    </trkpt>
    <trkpt lat="44.566025036260797" lon="9.09541992612586">
        <ele>0.0</ele>
    </trkpt>
    <trkpt lat="44.566075365957701" lon="9.09527974697829">
        <ele>0.0</ele>
    </trkpt>
    <trkpt lat="44.566138665091998" lon="9.09522814401549">
        <ele>0.0</ele>
    </trkpt>
    <trkpt lat="44.566197712644502" lon="9.095234340332629">
        <ele>0.0</ele>
    </trkpt>
    <trkpt lat="44.5662006666103" lon="9.09523586241775">
        <ele>0.0</ele>
    </trkpt>
    <trkpt lat="44.566518555162702" lon="9.095348326976611">
        <ele>0.0</ele>
    </trkpt>
    <trkpt lat="44.566572160257003" lon="9.095202133591719">
        <ele>0.0</ele>
    </trkpt>
    <trkpt lat="44.566668210285698" lon="9.09512640186488">
        <ele>0.0</ele>
    </trkpt>
    <trkpt lat="44.566723524442303" lon="9.094970832475401">
        <ele>0.0</ele>
    </trkpt>
    <trkpt lat="44.5666841000847" lon="9.094796457608471">
        <ele>0.0</ele>
    </trkpt>
    <trkpt lat="44.566743640106999" lon="9.094791786019931">
        <ele>0.0</ele>
    </trkpt>
    <trkpt lat="44.566684440513598" lon="9.09460815281779">
        <ele>0.0</ele>
    </trkpt>
    <trkpt lat="44.566672893335301" lon="9.094248402477589">
        <ele>0.0</ele>
    </trkpt>
    <trkpt lat="44.566548307463599" lon="9.09397426327445">
        <ele>0.0</ele>
    </trkpt>
    <trkpt lat="44.566163863040501" lon="9.093783538020601">
        <ele>0.0</ele>
    </trkpt>
    <trkpt lat="44.565892451901099" lon="9.093749566494971">
        <ele>0.0</ele>
    </trkpt>
    <trkpt lat="44.565602981216401" lon="9.09345730738935">
        <ele>0.0</ele>
    </trkpt>
    <trkpt lat="44.565322553789002" lon="9.09333899802183">
        <ele>0.0</ele>
    </trkpt>
    <trkpt lat="44.564959481009097" lon="9.09301020269255">
        <ele>0.0</ele>
    </trkpt>
    <trkpt lat="44.564379039524603" lon="9.09284033444996">
        <ele>0.0</ele>
    </trkpt>
    <trkpt lat="44.563956665780204" lon="9.092591019032749">
        <ele>0.0</ele>
    </trkpt>
    <trkpt lat="44.563757703408299" lon="9.092551930691201">
        <ele>0.0</ele>
    </trkpt>
    <trkpt lat="44.563717562320903" lon="9.09282766750384">
        <ele>0.0</ele>
    </trkpt>
    <trkpt lat="44.563375728006797" lon="9.093432709819369">
        <ele>0.0</ele>
    </trkpt>
    <trkpt lat="44.563363138411603" lon="9.093970281901379">
        <ele>0.0</ele>
    </trkpt>
    <trkpt lat="44.563341383673396" lon="9.094212188145359">
        <ele>0.0</ele>
    </trkpt>
    <trkpt lat="44.563332994030901" lon="9.094216103118841">
        <ele>0.0</ele>
    </trkpt>
    <trkpt lat="44.563240886319598" lon="9.09452389620466">
        <ele>0.0</ele>
    </trkpt>
    <trkpt lat="44.5629108361302" lon="9.094768335699589">
        <ele>0.0</ele>
    </trkpt>
    <trkpt lat="44.562635703881199" lon="9.095264989285409">
        <ele>0.0</ele>
    </trkpt>
    <trkpt lat="44.561975675582097" lon="9.095723507530399">
        <ele>0.0</ele>
    </trkpt>
    <trkpt lat="44.561965164685702" lon="9.09573777545668">
        <ele>0.0</ele>
    </trkpt>
    <trkpt lat="44.561713068276497" lon="9.096027655885299">
        <ele>0.0</ele>
    </trkpt>
    <trkpt lat="44.561319827864402" lon="9.096065577452251">
        <ele>0.0</ele>
    </trkpt>
    <trkpt lat="44.5608738381801" lon="9.095973621298031">
        <ele>0.0</ele>
    </trkpt>
    <trkpt lat="44.5608687131216" lon="9.095970292441271">
        <ele>0.0</ele>
    </trkpt>
    <trkpt lat="44.560510358968003" lon="9.095696171989569">
        <ele>0.0</ele>
    </trkpt>
    <trkpt lat="44.560505489102098" lon="9.095692801128321">
        <ele>0.0</ele>
    </trkpt>
    <trkpt lat="44.5604957392393" lon="9.095689811691461">
        <ele>0.0</ele>
    </trkpt>
    <trkpt lat="44.560186272657198" lon="9.09556746585945">
        <ele>0.0</ele>
    </trkpt>
    <trkpt lat="44.560181471817401" lon="9.09557108554978">
        <ele>0.0</ele>
    </trkpt>
    <trkpt lat="44.559708642444498" lon="9.095606296127491">
        <ele>0.0</ele>
    </trkpt>
    <trkpt lat="44.559700786332002" lon="9.095596098035561">
        <ele>0.0</ele>
    </trkpt>
    <trkpt lat="44.5594720908109" lon="9.095357591730179">
        <ele>0.0</ele>
    </trkpt>
    <trkpt lat="44.559236413363799" lon="9.0953581387061">
        <ele>0.0</ele>
    </trkpt>
    <trkpt lat="44.559073119452002" lon="9.095476149985251">
        <ele>0.0</ele>
    </trkpt>
    <trkpt lat="44.559102070603899" lon="9.096067677500161">
        <ele>0.0</ele>
    </trkpt>
    <trkpt lat="44.559162372348503" lon="9.096228830950791">
        <ele>0.0</ele>
    </trkpt>
    <trkpt lat="44.559393376278898" lon="9.096591865996871">
        <ele>0.0</ele>
    </trkpt>
    <trkpt lat="44.559398648785603" lon="9.096599421444999">
        <ele>0.0</ele>
    </trkpt>
    <trkpt lat="44.559590615577797" lon="9.09695357946377">
        <ele>0.0</ele>
    </trkpt>
    <trkpt lat="44.559575690264303" lon="9.09738074851718">
        <ele>0.0</ele>
    </trkpt>
    <trkpt lat="44.559575751205799" lon="9.097384707278801">
        <ele>0.0</ele>
    </trkpt>
    <trkpt lat="44.559603083596897" lon="9.097749542854171">
        <ele>0.0</ele>
    </trkpt>
    <trkpt lat="44.559697886490902" lon="9.098096595103931">
        <ele>0.0</ele>
    </trkpt>
    <trkpt lat="44.5597657497404" lon="9.0983912907136">
        <ele>0.0</ele>
    </trkpt>
    <trkpt lat="44.5597630707381" lon="9.09839531880688">
        <ele>0.0</ele>
    </trkpt>
    <trkpt lat="44.559606960171799" lon="9.098605843780691">
        <ele>0.0</ele>
    </trkpt>
    <trkpt lat="44.559603944509398" lon="9.09861644424932">
        <ele>0.0</ele>
    </trkpt>
    <trkpt lat="44.559539035431897" lon="9.098930232356199">
        <ele>0.0</ele>
    </trkpt>
    <trkpt lat="44.559533417177398" lon="9.098944039933">
        <ele>0.0</ele>
    </trkpt>
    <trkpt lat="44.559527948486597" lon="9.098954844092701">
        <ele>0.0</ele>
    </trkpt>
    <trkpt lat="44.559478703336701" lon="9.099209657743479">
        <ele>0.0</ele>
    </trkpt>
    <trkpt lat="44.559470634974602" lon="9.09923501517927">
        <ele>0.0</ele>
    </trkpt>
    <trkpt lat="44.5594142189859" lon="9.099838122702639">
        <ele>0.0</ele>
    </trkpt>
    <trkpt lat="44.559595460805099" lon="9.10038162084785">
        <ele>0.0</ele>
    </trkpt>
    <trkpt lat="44.5596370536609" lon="9.100615883277801">
        <ele>0.0</ele>
    </trkpt>
    <trkpt lat="44.559608009972003" lon="9.101057733579591">
        <ele>0.0</ele>
    </trkpt>
    <trkpt lat="44.559602472868399" lon="9.101061966022479">
        <ele>0.0</ele>
    </trkpt>
    <trkpt lat="44.559462489017399" lon="9.10131738172517">
        <ele>0.0</ele>
    </trkpt>
    <trkpt lat="44.559474277123897" lon="9.10155262291816">
        <ele>0.0</ele>
    </trkpt>
    <trkpt lat="44.559591744752197" lon="9.10163486056789">
        <ele>0.0</ele>
    </trkpt>
    <trkpt lat="44.559597308423498" lon="9.101634267990599">
        <ele>0.0</ele>
    </trkpt>
    <trkpt lat="44.559785620224503" lon="9.10153925654499">
        <ele>0.0</ele>
    </trkpt>
    <trkpt lat="44.560135164179798" lon="9.10127920450333">
        <ele>0.0</ele>
    </trkpt>
    <trkpt lat="44.560138476642202" lon="9.101275828735099">
        <ele>0.0</ele>
    </trkpt>
    <trkpt lat="44.560151752202799" lon="9.101262300254691">
        <ele>0.0</ele>
    </trkpt>
    <trkpt lat="44.560435517975499" lon="9.101323197171419">
        <ele>0.0</ele>
    </trkpt>
    <trkpt lat="44.560621761960299" lon="9.101144030433771">
        <ele>0.0</ele>
    </trkpt>
    <trkpt lat="44.560786641319702" lon="9.101129880791911">
        <ele>0.0</ele>
    </trkpt>
    <trkpt lat="44.561041263041901" lon="9.101222084894101">
        <ele>0.0</ele>
    </trkpt>
    <trkpt lat="44.561280099691103" lon="9.101065984902711">
        <ele>0.0</ele>
    </trkpt>
    <trkpt lat="44.561535081693798" lon="9.10103751957608">
        <ele>0.0</ele>
    </trkpt>
    <trkpt lat="44.561792298997403" lon="9.10128592449391">
        <ele>0.0</ele>
    </trkpt>
    <trkpt lat="44.561872499058197" lon="9.101489445608649">
        <ele>0.0</ele>
    </trkpt>
    <trkpt lat="44.561864528100699" lon="9.10149081270545">
        <ele>0.0</ele>
    </trkpt>
    <trkpt lat="44.561760385479097" lon="9.101621207770251">
        <ele>0.0</ele>
    </trkpt>
    <trkpt lat="44.561647747426001" lon="9.10190857181929">
        <ele>0.0</ele>
    </trkpt>
    <trkpt lat="44.561773472146598" lon="9.10219878702228">
        <ele>0.0</ele>
    </trkpt>
    <trkpt lat="44.561995820686199" lon="9.10294845720477">
        <ele>0.0</ele>
    </trkpt>
    <trkpt lat="44.562331853572502" lon="9.103039908465419">
        <ele>0.0</ele>
    </trkpt>
    <trkpt lat="44.562346787038798" lon="9.103040811562391">
        <ele>0.0</ele>
    </trkpt>
    <trkpt lat="44.562354257721204" lon="9.103041263581931">
        <ele>0.0</ele>
    </trkpt>
    <trkpt lat="44.562999168832803" lon="9.103083553520211">
        <ele>0.0</ele>
    </trkpt>
    <trkpt lat="44.563175776836403" lon="9.102929148626799">
        <ele>0.0</ele>
    </trkpt>
    <trkpt lat="44.563378989932701" lon="9.102922467604539">
        <ele>0.0</ele>
    </trkpt>
    <trkpt lat="44.563769051981502" lon="9.102682845808751">
        <ele>0.0</ele>
    </trkpt>
    <trkpt lat="44.563886639610601" lon="9.102766960304381">
        <ele>0.0</ele>
    </trkpt>
    <trkpt lat="44.563895405689898" lon="9.102769002768021">
        <ele>0.0</ele>
    </trkpt>
    <trkpt lat="44.5641111783819" lon="9.10277889865471">
        <ele>0.0</ele>
    </trkpt>
    <trkpt lat="44.564407963717997" lon="9.102597482839821">
        <ele>0.0</ele>
    </trkpt>
    <trkpt lat="44.564343301836402" lon="9.102946838000401">
        <ele>0.0</ele>
    </trkpt>
    <trkpt lat="44.564400531266699" lon="9.103309664993329">
        <ele>0.0</ele>
    </trkpt>
    <trkpt lat="44.564480242524702" lon="9.10360757672038">
        <ele>0.0</ele>
    </trkpt>
    <trkpt lat="44.564475125292397" lon="9.103783893571279">
        <ele>0.0</ele>
    </trkpt>
    <trkpt lat="44.564554144395601" lon="9.10400134993999">
        <ele>0.0</ele>
    </trkpt>
    <trkpt lat="44.564479255683402" lon="9.10425193753211">
        <ele>0.0</ele>
    </trkpt>
    <trkpt lat="44.564470269665001" lon="9.104272548407909">
        <ele>0.0</ele>
    </trkpt>
    <trkpt lat="44.5644702919111" lon="9.104278097943499">
        <ele>0.0</ele>
    </trkpt>
    <trkpt lat="44.564531564139102" lon="9.104710927780429">
        <ele>0.0</ele>
    </trkpt>
    <trkpt lat="44.564611856974501" lon="9.104813831708009">
        <ele>0.0</ele>
    </trkpt>
    <trkpt lat="44.564618816507299" lon="9.10481321396724">
        <ele>0.0</ele>
    </trkpt>
    <trkpt lat="44.564877474500697" lon="9.10492874523303">
        <ele>0.0</ele>
    </trkpt>
    <trkpt lat="44.5648875204215" lon="9.10492172908129">
        <ele>0.0</ele>
    </trkpt>
    <trkpt lat="44.565064550055702" lon="9.105016716387411">
        <ele>0.0</ele>
    </trkpt>
    <trkpt lat="44.565025656229103" lon="9.10532349830952">
        <ele>0.0</ele>
    </trkpt>
    <trkpt lat="44.565000055545298" lon="9.1058991978484">
        <ele>0.0</ele>
    </trkpt>
    <trkpt lat="44.565046342994698" lon="9.1061669737862">
        <ele>0.0</ele>
    </trkpt>
    <trkpt lat="44.565372554966999" lon="9.10650975426454">
        <ele>0.0</ele>
    </trkpt>
    <trkpt lat="44.565790536145698" lon="9.106627103694899">
        <ele>0.0</ele>
    </trkpt>
    <trkpt lat="44.565947889020499" lon="9.10691743301286">
        <ele>0.0</ele>
    </trkpt>
    <trkpt lat="44.566256021592501" lon="9.107213986530191">
        <ele>0.0</ele>
    </trkpt>
    <trkpt lat="44.566657674079501" lon="9.107357048785371">
        <ele>0.0</ele>
    </trkpt>
    <trkpt lat="44.566660617352802" lon="9.10734655168708">
        <ele>0.0</ele>
    </trkpt>
    <trkpt lat="44.567016058527898" lon="9.107229406968329">
        <ele>0.0</ele>
    </trkpt>
    <trkpt lat="44.5675550006886" lon="9.107380727820219">
        <ele>0.0</ele>
    </trkpt>
    <trkpt lat="44.567551246504301" lon="9.10736427738958">
        <ele>0.0</ele>
    </trkpt>
    <trkpt lat="44.568091217598997" lon="9.107230923576189">
        <ele>0.0</ele>
    </trkpt>
    <trkpt lat="44.568789594137002" lon="9.10734154706458">
        <ele>0.0</ele>
    </trkpt>
    <trkpt lat="44.5696776645688" lon="9.107308770272359">
        <ele>0.0</ele>
    </trkpt>
    <trkpt lat="44.569511745942698" lon="9.10751701492998">
        <ele>0.0</ele>
    </trkpt>
    <trkpt lat="44.569425770609001" lon="9.10813720744928">
        <ele>0.0</ele>
    </trkpt>
    <trkpt lat="44.569159675989098" lon="9.10862275831126">
        <ele>0.0</ele>
    </trkpt>
    <trkpt lat="44.569148784217802" lon="9.10862872323619">
        <ele>0.0</ele>
    </trkpt>
    <trkpt lat="44.569038610042099" lon="9.10909041474074">
        <ele>0.0</ele>
    </trkpt>
    <trkpt lat="44.568973070861297" lon="9.109313603441681">
        <ele>0.0</ele>
    </trkpt>
    <trkpt lat="44.569056203355302" lon="9.1094065099775">
        <ele>0.0</ele>
    </trkpt>
    <trkpt lat="44.569070184698901" lon="9.10972538481022">
        <ele>0.0</ele>
    </trkpt>
    <trkpt lat="44.568813446397897" lon="9.10992652461459">
        <ele>0.0</ele>
    </trkpt>
    <trkpt lat="44.568805149103802" lon="9.109930231789621">
        <ele>0.0</ele>
    </trkpt>
    <trkpt lat="44.568480190765399" lon="9.110176200029141">
        <ele>0.0</ele>
    </trkpt>
    <trkpt lat="44.5684689040771" lon="9.110179932072571">
        <ele>0.0</ele>
    </trkpt>
    <trkpt lat="44.568262012476403" lon="9.110297677130371">
        <ele>0.0</ele>
    </trkpt>
    <trkpt lat="44.568255410979802" lon="9.110294156868511">
        <ele>0.0</ele>
    </trkpt>
    <trkpt lat="44.568184245231699" lon="9.110827268198211">
        <ele>0.0</ele>
    </trkpt>
    <trkpt lat="44.568108845631301" lon="9.11101071262544">
        <ele>0.0</ele>
    </trkpt>
    <trkpt lat="44.568044631284103" lon="9.11112189037617">
        <ele>0.0</ele>
    </trkpt>
    <trkpt lat="44.567982925715199" lon="9.11131300317861">
        <ele>0.0</ele>
    </trkpt>
    <trkpt lat="44.567979569665603" lon="9.111313513062351">
        <ele>0.0</ele>
    </trkpt>
    <trkpt lat="44.568128830336498" lon="9.11189336705141">
        <ele>0.0</ele>
    </trkpt>
    <trkpt lat="44.568255424419803" lon="9.112045117493921">
        <ele>0.0</ele>
    </trkpt>
    <trkpt lat="44.568691926916898" lon="9.11242925671961">
        <ele>0.0</ele>
    </trkpt>
    <trkpt lat="44.5687839270282" lon="9.11258306112021">
        <ele>0.0</ele>
    </trkpt>
    <trkpt lat="44.568837400912798" lon="9.112913541375111">
        <ele>0.0</ele>
    </trkpt>
    <trkpt lat="44.568984774379203" lon="9.113236484631191">
        <ele>0.0</ele>
    </trkpt>
    <trkpt lat="44.569156908830401" lon="9.1136469681233">
        <ele>0.0</ele>
    </trkpt>
    <trkpt lat="44.569253408992097" lon="9.11418246854663">
        <ele>0.0</ele>
    </trkpt>
    <trkpt lat="44.569424608073298" lon="9.114597277507089">
        <ele>0.0</ele>
    </trkpt>
    <trkpt lat="44.569577436939703" lon="9.11496965618942">
        <ele>0.0</ele>
    </trkpt>
    <trkpt lat="44.569608223038699" lon="9.115176391205161">
        <ele>0.0</ele>
    </trkpt>
    <trkpt lat="44.569597093564298" lon="9.115357038578381">
        <ele>0.0</ele>
    </trkpt>
    <trkpt lat="44.569417452499302" lon="9.11549077464878">
        <ele>0.0</ele>
    </trkpt>
  </trkseg>
</trk>
</gpx>
