<?xml version="1.0"?>
<gpx version="1.1" creator="GDAL 3.6.3" xmlns:xsi="http://www.w3.org/2001/XMLSchema-instance" xmlns:ogr="http://osgeo.org/gdal" xmlns="http://www.topografix.com/GPX/1/1" xsi:schemaLocation="http://www.topografix.com/GPX/1/1 http://www.topografix.com/GPX/1/1/gpx.xsd">
<metadata><bounds minlat="44.569770509816898" minlon="9.107232107179650" maxlat="44.581495709509099" maxlon="9.115918244159310"/></metadata>                    
<trk>
  <name>Casareggio - Monte Buio</name>
  <trkseg>
    <trkpt lat="44.569770509816898" lon="9.11591824415931">
        <ele>0.0</ele>
    </trkpt>
    <trkpt lat="44.569817900493199" lon="9.11585006587821">
        <ele>0.0</ele>
    </trkpt>
    <trkpt lat="44.569820293590801" lon="9.11572709322841">
        <ele>0.0</ele>
    </trkpt>
    <trkpt lat="44.570343448964003" lon="9.11543830879438">
        <ele>0.0</ele>
    </trkpt>
    <trkpt lat="44.570600822857102" lon="9.11519422319653">
        <ele>0.0</ele>
    </trkpt>
    <trkpt lat="44.570764065778199" lon="9.114598799079239">
        <ele>0.0</ele>
    </trkpt>
    <trkpt lat="44.571102032476198" lon="9.11420500353768">
        <ele>0.0</ele>
    </trkpt>
    <trkpt lat="44.570771039992898" lon="9.114192938172989">
        <ele>0.0</ele>
    </trkpt>
    <trkpt lat="44.570532857423501" lon="9.11430941499818">
        <ele>0.0</ele>
    </trkpt>
    <trkpt lat="44.570294774734499" lon="9.114245092863399">
        <ele>0.0</ele>
    </trkpt>
    <trkpt lat="44.570166743736301" lon="9.114071744586891">
        <ele>0.0</ele>
    </trkpt>
    <trkpt lat="44.570115461373" lon="9.113537356753859">
        <ele>0.0</ele>
    </trkpt>
    <trkpt lat="44.5699507778506" lon="9.11289436463643">
        <ele>0.0</ele>
    </trkpt>
    <trkpt lat="44.569944108078403" lon="9.112519350722209">
        <ele>0.0</ele>
    </trkpt>
    <trkpt lat="44.570124405203103" lon="9.112049223662011">
        <ele>0.0</ele>
    </trkpt>
    <trkpt lat="44.570253127165799" lon="9.11237655500754">
        <ele>0.0</ele>
    </trkpt>
    <trkpt lat="44.570354050085299" lon="9.112697126162359">
        <ele>0.0</ele>
    </trkpt>
    <trkpt lat="44.570440270518802" lon="9.11290851145365">
        <ele>0.0</ele>
    </trkpt>
    <trkpt lat="44.570636655679202" lon="9.112389163790439">
        <ele>0.0</ele>
    </trkpt>
    <trkpt lat="44.570929316711002" lon="9.1120387396348">
        <ele>0.0</ele>
    </trkpt>
    <trkpt lat="44.571113450796602" lon="9.111916999594669">
        <ele>0.0</ele>
    </trkpt>
    <trkpt lat="44.571248381102102" lon="9.1117526070911">
        <ele>0.0</ele>
    </trkpt>
    <trkpt lat="44.571382354024202" lon="9.1117204738922">
        <ele>0.0</ele>
    </trkpt>
    <trkpt lat="44.571383510187097" lon="9.111723051574289">
        <ele>0.0</ele>
    </trkpt>
    <trkpt lat="44.571568842834701" lon="9.111552870912231">
        <ele>0.0</ele>
    </trkpt>
    <trkpt lat="44.571571101784301" lon="9.111549689149831">
        <ele>0.0</ele>
    </trkpt>
    <trkpt lat="44.571600156338597" lon="9.11144669222195">
        <ele>0.0</ele>
    </trkpt>
    <trkpt lat="44.571519901261702" lon="9.111361354810731">
        <ele>0.0</ele>
    </trkpt>
    <trkpt lat="44.5713616347238" lon="9.111358980719389">
        <ele>0.0</ele>
    </trkpt>
    <trkpt lat="44.571357954219202" lon="9.11135880429679">
        <ele>0.0</ele>
    </trkpt>
    <trkpt lat="44.571170881140198" lon="9.11138903528035">
        <ele>0.0</ele>
    </trkpt>
    <trkpt lat="44.571120736688897" lon="9.11138034051022">
        <ele>0.0</ele>
    </trkpt>
    <trkpt lat="44.571118612456303" lon="9.111377511977469">
        <ele>0.0</ele>
    </trkpt>
    <trkpt lat="44.571097620307398" lon="9.111308377133939">
        <ele>0.0</ele>
    </trkpt>
    <trkpt lat="44.571085791267201" lon="9.11116868935496">
        <ele>0.0</ele>
    </trkpt>
    <trkpt lat="44.571086568275597" lon="9.11116818280842">
        <ele>0.0</ele>
    </trkpt>
    <trkpt lat="44.571144738433702" lon="9.11115868564104">
        <ele>0.0</ele>
    </trkpt>
    <trkpt lat="44.571146694042902" lon="9.111158757609029">
        <ele>0.0</ele>
    </trkpt>
    <trkpt lat="44.571231111796202" lon="9.111119239705451">
        <ele>0.0</ele>
    </trkpt>
    <trkpt lat="44.571233721238499" lon="9.11111613146846">
        <ele>0.0</ele>
    </trkpt>
    <trkpt lat="44.571401848079397" lon="9.11097304909045">
        <ele>0.0</ele>
    </trkpt>
    <trkpt lat="44.571515821488198" lon="9.11084725402397">
        <ele>0.0</ele>
    </trkpt>
    <trkpt lat="44.571666456531702" lon="9.11059325792098">
        <ele>0.0</ele>
    </trkpt>
    <trkpt lat="44.571821392510998" lon="9.110368826953451">
        <ele>0.0</ele>
    </trkpt>
    <trkpt lat="44.571828152995302" lon="9.110364134927121">
        <ele>0.0</ele>
    </trkpt>
    <trkpt lat="44.572102667046103" lon="9.110229399062669">
        <ele>0.0</ele>
    </trkpt>
    <trkpt lat="44.572118863420201" lon="9.110220876736809">
        <ele>0.0</ele>
    </trkpt>
    <trkpt lat="44.572425093859898" lon="9.110198958908381">
        <ele>0.0</ele>
    </trkpt>
    <trkpt lat="44.572703485558499" lon="9.11045920158826">
        <ele>0.0</ele>
    </trkpt>
    <trkpt lat="44.572707259847299" lon="9.110456260319459">
        <ele>0.0</ele>
    </trkpt>
    <trkpt lat="44.572884886230703" lon="9.110402217013339">
        <ele>0.0</ele>
    </trkpt>
    <trkpt lat="44.573101665591103" lon="9.110267197081169">
        <ele>0.0</ele>
    </trkpt>
    <trkpt lat="44.573108242697003" lon="9.110258310830829">
        <ele>0.0</ele>
    </trkpt>
    <trkpt lat="44.573412829068197" lon="9.109968477518301">
        <ele>0.0</ele>
    </trkpt>
    <trkpt lat="44.573604848564102" lon="9.109916282524241">
        <ele>0.0</ele>
    </trkpt>
    <trkpt lat="44.573901682634599" lon="9.10964117104546">
        <ele>0.0</ele>
    </trkpt>
    <trkpt lat="44.574255436695402" lon="9.109324280582349">
        <ele>0.0</ele>
    </trkpt>
    <trkpt lat="44.5745526554009" lon="9.10906877175387">
        <ele>0.0</ele>
    </trkpt>
    <trkpt lat="44.5749979616551" lon="9.108591085033559">
        <ele>0.0</ele>
    </trkpt>
    <trkpt lat="44.575002278021302" lon="9.10858761943037">
        <ele>0.0</ele>
    </trkpt>
    <trkpt lat="44.575015358887597" lon="9.10857708770742">
        <ele>0.0</ele>
    </trkpt>
    <trkpt lat="44.575214788557503" lon="9.10839156804311">
        <ele>0.0</ele>
    </trkpt>
    <trkpt lat="44.575224608833999" lon="9.10838385339938">
        <ele>0.0</ele>
    </trkpt>
    <trkpt lat="44.575236434240502" lon="9.10837453791544">
        <ele>0.0</ele>
    </trkpt>
    <trkpt lat="44.575244264459798" lon="9.10836837682174">
        <ele>0.0</ele>
    </trkpt>
    <trkpt lat="44.575250068483797" lon="9.10836382357734">
        <ele>0.0</ele>
    </trkpt>
    <trkpt lat="44.575261659162898" lon="9.10835473050737">
        <ele>0.0</ele>
    </trkpt>
    <trkpt lat="44.575520181482098" lon="9.108100798224919">
        <ele>0.0</ele>
    </trkpt>
    <trkpt lat="44.576300313098201" lon="9.10738864542633">
        <ele>0.0</ele>
    </trkpt>
    <trkpt lat="44.576545683921097" lon="9.10750113166244">
        <ele>0.0</ele>
    </trkpt>
    <trkpt lat="44.5767990919922" lon="9.107661630553229">
        <ele>0.0</ele>
    </trkpt>
    <trkpt lat="44.577014528352201" lon="9.107766469019539">
        <ele>0.0</ele>
    </trkpt>
    <trkpt lat="44.577023728761603" lon="9.107766015731441">
        <ele>0.0</ele>
    </trkpt>
    <trkpt lat="44.577028322209202" lon="9.107765790775341">
        <ele>0.0</ele>
    </trkpt>
    <trkpt lat="44.577348323648899" lon="9.10777748313258">
        <ele>0.0</ele>
    </trkpt>
    <trkpt lat="44.577357097552401" lon="9.107774173083071">
        <ele>0.0</ele>
    </trkpt>
    <trkpt lat="44.577589456681203" lon="9.10781522318517">
        <ele>0.0</ele>
    </trkpt>
    <trkpt lat="44.577766117601499" lon="9.108065572211901">
        <ele>0.0</ele>
    </trkpt>
    <trkpt lat="44.5780904696257" lon="9.10816188795566">
        <ele>0.0</ele>
    </trkpt>
    <trkpt lat="44.578242106292898" lon="9.10831398756962">
        <ele>0.0</ele>
    </trkpt>
    <trkpt lat="44.578268044870399" lon="9.10857238314054">
        <ele>0.0</ele>
    </trkpt>
    <trkpt lat="44.578426362907102" lon="9.10892422447996">
        <ele>0.0</ele>
    </trkpt>
    <trkpt lat="44.578545467488098" lon="9.109149876225811">
        <ele>0.0</ele>
    </trkpt>
    <trkpt lat="44.578609229345098" lon="9.10922000115476">
        <ele>0.0</ele>
    </trkpt>
    <trkpt lat="44.578520145078102" lon="9.108776732175111">
        <ele>0.0</ele>
    </trkpt>
    <trkpt lat="44.578510619007801" lon="9.1083648659312">
        <ele>0.0</ele>
    </trkpt>
    <trkpt lat="44.578523343614101" lon="9.108122072376821">
        <ele>0.0</ele>
    </trkpt>
    <trkpt lat="44.578404366577097" lon="9.107685901015589">
        <ele>0.0</ele>
    </trkpt>
    <trkpt lat="44.578142218728502" lon="9.10723210717965">
        <ele>0.0</ele>
    </trkpt>
    <trkpt lat="44.578334000645903" lon="9.10728293353713">
        <ele>0.0</ele>
    </trkpt>
    <trkpt lat="44.578630687640398" lon="9.1073515568005">
        <ele>0.0</ele>
    </trkpt>
    <trkpt lat="44.578807059983099" lon="9.107586054475041">
        <ele>0.0</ele>
    </trkpt>
    <trkpt lat="44.578952285356699" lon="9.10774953393816">
        <ele>0.0</ele>
    </trkpt>
    <trkpt lat="44.579181491460098" lon="9.10855578185933">
        <ele>0.0</ele>
    </trkpt>
    <trkpt lat="44.579466794569598" lon="9.109143194449461">
        <ele>0.0</ele>
    </trkpt>
    <trkpt lat="44.5797922822766" lon="9.10957562857349">
        <ele>0.0</ele>
    </trkpt>
    <trkpt lat="44.580053763372902" lon="9.110211568114959">
        <ele>0.0</ele>
    </trkpt>
    <trkpt lat="44.5803901116399" lon="9.11097251245374">
        <ele>0.0</ele>
    </trkpt>
    <trkpt lat="44.580458071183799" lon="9.11127061616229">
        <ele>0.0</ele>
    </trkpt>
    <trkpt lat="44.5804369633655" lon="9.11218364449635">
        <ele>0.0</ele>
    </trkpt>
    <trkpt lat="44.5804479960291" lon="9.11237671231445">
        <ele>0.0</ele>
    </trkpt>
    <trkpt lat="44.580343865987103" lon="9.1132565499649">
        <ele>0.0</ele>
    </trkpt>
    <trkpt lat="44.580250187822898" lon="9.11381830331128">
        <ele>0.0</ele>
    </trkpt>
    <trkpt lat="44.580156261876503" lon="9.11428687185996">
        <ele>0.0</ele>
    </trkpt>
    <trkpt lat="44.580248100721803" lon="9.114768109425">
        <ele>0.0</ele>
    </trkpt>
    <trkpt lat="44.580294997211503" lon="9.11501669865166">
        <ele>0.0</ele>
    </trkpt>
    <trkpt lat="44.580386295995503" lon="9.11507528945835">
        <ele>0.0</ele>
    </trkpt>
    <trkpt lat="44.5804025500398" lon="9.11514231764121">
        <ele>0.0</ele>
    </trkpt>
    <trkpt lat="44.5805191514483" lon="9.115220801874511">
        <ele>0.0</ele>
    </trkpt>
    <trkpt lat="44.580513573260603" lon="9.115020192694679">
        <ele>0.0</ele>
    </trkpt>
    <trkpt lat="44.580573752899703" lon="9.11499620305964">
        <ele>0.0</ele>
    </trkpt>
    <trkpt lat="44.580617029844902" lon="9.115043993555259">
        <ele>0.0</ele>
    </trkpt>
    <trkpt lat="44.580688656434802" lon="9.11504130188691">
        <ele>0.0</ele>
    </trkpt>
    <trkpt lat="44.580805729044201" lon="9.1150276172594">
        <ele>0.0</ele>
    </trkpt>
    <trkpt lat="44.581001481642701" lon="9.114892007401419">
        <ele>0.0</ele>
    </trkpt>
    <trkpt lat="44.581090158019599" lon="9.11484229510592">
        <ele>0.0</ele>
    </trkpt>
    <trkpt lat="44.580838365126603" lon="9.114124481098431">
        <ele>0.0</ele>
    </trkpt>
    <trkpt lat="44.580836185906598" lon="9.11390743804947">
        <ele>0.0</ele>
    </trkpt>
    <trkpt lat="44.580938920167299" lon="9.11351279186198">
        <ele>0.0</ele>
    </trkpt>
    <trkpt lat="44.581044401384197" lon="9.11307770712143">
        <ele>0.0</ele>
    </trkpt>
    <trkpt lat="44.581159042710297" lon="9.112705508216269">
        <ele>0.0</ele>
    </trkpt>
    <trkpt lat="44.5812464946654" lon="9.11247994542968">
        <ele>0.0</ele>
    </trkpt>
    <trkpt lat="44.581295713960003" lon="9.112306147617961">
        <ele>0.0</ele>
    </trkpt>
    <trkpt lat="44.581366401760398" lon="9.11211254970832">
        <ele>0.0</ele>
    </trkpt>
    <trkpt lat="44.581449039655098" lon="9.111958120375141">
        <ele>0.0</ele>
    </trkpt>
    <trkpt lat="44.581495709509099" lon="9.111713031623159">
        <ele>0.0</ele>
    </trkpt>
  </trkseg>
</trk>
</gpx>
